ONEWEB-0522             
1 54140U 22138AD  23059.41469279  .00000012  00000+0 -16536-5 0  9990
2 54140  87.9294 184.5459 0001377 100.8323 259.2965 13.19723762 17902
ONEWEB-0522             
1 54140U 22138AD  23059.41469279  .00000012  00000+0 -16536-5 0  9990
2 54140  87.9294 184.5459 0001377 100.8323 259.2965 13.19723762 18778
ONEWEB-0522             
1 54140U 22138AD  23059.86959468 -.00000046  00000+0 -14613-3 0  9993
2 54140  87.9294 184.4559 0001382 100.5172 259.6117 13.19723445 17964
ONEWEB-0522             
1 54140U 22138AD  23060.85521433  .00000017  00000+0  10673-4 0  9990
2 54140  87.9296 184.2611 0001409 103.6907 256.4382 13.19723252 18093
ONEWEB-0522             
1 54140U 22138AD  23061.38593291  .00000003  00000+0 -26021-4 0  9990
2 54140  87.9296 184.1561 0001428 104.2266 255.9026 13.19723174 18162
ONEWEB-0522             
1 54140U 22138AD  23062.37155163  .00000127  00000+0  28580-3 0  9999
2 54140  87.9296 183.9612 0001438 105.1530 254.9762 13.19724683 18297
ONEWEB-0522             
1 54140U 22138AD  23062.37155163  .00000127  00000+0  28580-3 0  9999
2 54140  87.9296 183.9612 0001438 105.1530 254.9762 13.19724683 19164
